{"type":"FeatureCollection","features":[{"id":"0","type":"Feature","properties":{"category":1,"label":"0.10 to 0.25 inches"},"geometry":{"type":"Polygon","coordinates":[[[-83.7090704224014,34.8034202605733],[-83.7391209982364,34.8066256769054],[-83.7151586141023,34.8129082920364],[-83.7090704224014,34.8034202605733]]]}},{"id":"1","type":"Feature","properties":{"category":0,"label":"0.01 to 0.10 inches"},"geometry":{"type":"Polygon","coordinates":[[[-83.8887334792253,34.6262014376375],[-83.9176480024329,34.6302438535574],[-83.9465449806447,34.6696542999557],[-83.9384961107333,34.7052490325251],[-83.9221176473841,34.687805234109],[-83.8808293575506,34.6673238242782],[-83.8610602804166,34.6853832953144],[-83.8965586470714,34.7231920752206],[-83.9125204116046,34.7333165571063],[-83.8928566062422,34.7457879538547],[-83.8841497904538,34.820715425023],[-83.8572485813424,34.8576344339426],[-83.7799399542667,34.9055036630047],[-83.7680399079175,34.9181468309],[-83.7578987709796,34.9245629885828],[-83.7112416432566,34.9752272420218],[-83.6676987922656,34.9804996731371],[-83.5883768510936,34.9667841758622],[-83.5967239895272,34.9217613761605],[-83.6332926152996,34.8813089618385],[-83.6416353681579,34.7938158710597],[-83.68603354825,34.7836627804255],[-83.6782083795056,34.777123938889],[-83.6332926152996,34.7668498860423],[-83.6485087080784,34.7437804027623],[-83.6803752147856,34.7330624240219],[-83.7192115593393,34.7084240065948],[-83.731506373035,34.6953266773592],[-83.7668819238208,34.6737595296393],[-83.8146970356405,34.6670803116728],[-83.8668589756442,34.6495202192983],[-83.8887334792253,34.6262014376375]],[[-83.7090704224014,34.8034202605733],[-83.7151586141023,34.8129082920364],[-83.7391209982364,34.8066256769054],[-83.7090704224014,34.8034202605733]]]}},{"id":"2","type":"Feature","properties":{"category":0,"label":"0.01 to 0.10 inches"},"geometry":{"type":"Polygon","coordinates":[[[-83.8887334792253,34.6262014376375],[-83.9176480024329,34.6302438535574],[-83.9465449806447,34.6696542999557],[-83.9384961107333,34.7052490325251],[-83.9221176473841,34.687805234109],[-83.8808293575506,34.6673238242782],[-83.8610602804166,34.6853832953144],[-83.8965586470714,34.7231920752206],[-83.9125204116046,34.7333165571063],[-83.8928566062422,34.7457879538547],[-83.8841497904538,34.820715425023],[-83.8572485813424,34.8576344339426],[-83.7799399542667,34.9055036630047],[-83.7680399079175,34.9181468309],[-83.7578987709796,34.9245629885828],[-83.7112416432566,34.9752272420218],[-83.6676987922656,34.9804996731371],[-83.5883768510936,34.9667841758622],[-83.5967239895272,34.9217613761605],[-83.6332926152996,34.8813089618385],[-83.6416353681579,34.7938158710597],[-83.68603354825,34.7836627804255],[-83.6782083795056,34.777123938889],[-83.6332926152996,34.7668498860423],[-83.6485087080784,34.7437804027623],[-83.6803752147856,34.7330624240219],[-83.7192115593393,34.7084240065948],[-83.7334188018333,34.6932890486069],[-83.7715884293596,34.6743583423248],[-83.8219388249647,34.6673238242782],[-83.8387471465503,34.6589826380216],[-83.8668589756442,34.6495202192983],[-83.8887334792253,34.6262014376375]],[[-83.7090704224014,34.8034202605733],[-83.7151586141023,34.8129082920364],[-83.7391209982364,34.8066256769054],[-83.7090704224014,34.8034202605733]]]}},{"id":"3","type":"Feature","properties":{"category":1,"label":"0.10 to 0.25 inches"},"geometry":{"type":"Polygon","coordinates":[[[-83.7090704224014,34.8034202605733],[-83.7391209982364,34.8066256769054],[-83.7151586141023,34.8129082920364],[-83.7090704224014,34.8034202605733]]]}},{"id":"4","type":"Feature","properties":{"category":1,"label":"0.10 to 0.25 inches"},"geometry":{"type":"Polygon","coordinates":[[[-83.7090704224014,34.8034202605733],[-83.7391209982364,34.8066256769054],[-83.7151586141023,34.8129082920364],[-83.7090704224014,34.8034202605733]]]}},{"id":"5","type":"Feature","properties":{"category":0,"label":"0.01 to 0.10 inches"},"geometry":{"type":"Polygon","coordinates":[[[-83.8797503263841,34.6335931346816],[-83.9282233840809,34.6388116804539],[-83.933100954901,34.688735758561],[-83.9108580019162,34.6818972388195],[-83.8786537502218,34.6671217989084],[-83.8576258036932,34.6784326783315],[-83.8666308880037,34.6981810764538],[-83.8845752622167,34.7108921448418],[-83.8928916962338,34.7262077397882],[-83.9122747789683,34.7333165571063],[-83.8928916962338,34.7404247629874],[-83.8821277034105,34.8271013836487],[-83.8437870106029,34.8636234361654],[-83.7702111287727,34.9125610574631],[-83.7073553768273,34.976100612634],[-83.6582857820863,34.9793298477114],[-83.5977503857062,34.9680620138562],[-83.5936974395708,34.9267063910489],[-83.6060975241397,34.9179454191069],[-83.6144139581568,34.9026654269322],[-83.6330469826633,34.8811074596885],[-83.6419029322636,34.7941688737942],[-83.6862791808864,34.7831962515928],[-83.6779627468693,34.7773256956423],[-83.6426179004999,34.7685848367245],[-83.6407010852281,34.7489649761884],[-83.6593297223628,34.7404247629874],[-83.6876126176362,34.730052416665],[-83.7187202931683,34.7080237611403],[-83.7343267668202,34.69313036372],[-83.7761107092983,34.6739615388214],[-83.8306763451696,34.6671217989084],[-83.8389927791867,34.659184683237],[-83.8616655904079,34.6508607192126],[-83.8797503263841,34.6335931346816]]]}},{"id":"6","type":"Feature","properties":{"category":0,"label":"0.01 to 0.10 inches"},"geometry":{"type":"Polygon","coordinates":[[[-83.8887334792253,34.6262014376375],[-83.9121212577845,34.6294714785017],[-83.9465449806447,34.667666545988],[-83.938504882782,34.7052598500388],[-83.9221176473841,34.687805234109],[-83.8808293575506,34.6673238242782],[-83.8610602804166,34.6853832953144],[-83.8965586470714,34.7231920752206],[-83.9125204116046,34.7333165571063],[-83.8928566062422,34.7457879538547],[-83.8841497904538,34.820715425023],[-83.8668545891707,34.8444545742398],[-83.8567134522327,34.8508764878374],[-83.8407429147524,34.8678575847985],[-83.7799399542667,34.9055036630047],[-83.7680399079175,34.9181468309],[-83.7578987709796,34.9245629885828],[-83.7112416432566,34.9752272420218],[-83.6676987922656,34.9804996731371],[-83.5986539642195,34.9685616412957],[-83.5912981301768,34.9277600902335],[-83.6332926152996,34.8813089618385],[-83.6416353681579,34.7938158710597],[-83.68603354825,34.7836627804255],[-83.6782083795056,34.777123938889],[-83.6435039340175,34.7691865663206],[-83.6399948899389,34.7496857805375],[-83.6590840897264,34.7402229160418],[-83.6803752147856,34.7330624240219],[-83.7192115593393,34.7084240065948],[-83.7334188018333,34.6932890486069],[-83.7715884293596,34.6743583423248],[-83.8219388249647,34.6673238242782],[-83.8387471465503,34.6589826380216],[-83.8668589756442,34.6495202192983],[-83.8887334792253,34.6262014376375]],[[-83.7090704224014,34.8034202605733],[-83.7151586141023,34.8129082920364],[-83.7391209982364,34.8066256769054],[-83.7090704224014,34.8034202605733]]]}},{"id":"7","type":"Feature","properties":{"category":0,"label":"0.01 to 0.10 inches"},"geometry":{"type":"Polygon","coordinates":[[[-83.8887334792253,34.6262014376375],[-83.9124897071882,34.6296032161156],[-83.9466283200485,34.6680453411233],[-83.9384522477946,34.7050218577648],[-83.92083684652,34.6869342101935],[-83.8801319352084,34.6672570837098],[-83.8607400804252,34.6861172786855],[-83.8967209412022,34.7230586841075],[-83.9123098689599,34.7333165571063],[-83.8929180141767,34.7460762875868],[-83.8840006557436,34.8211061222437],[-83.8667712497668,34.8443879766852],[-83.8567967916366,34.8509430801411],[-83.8400016294716,34.868150890609],[-83.7803478801355,34.9053903517128],[-83.7679565685137,34.9180802930315],[-83.7579821103834,34.9246295211954],[-83.7107591500326,34.975491410227],[-83.6647862861296,34.980176220238],[-83.5983337642281,34.9683944999357],[-83.592105210764,34.9273734959242],[-83.6062598173722,34.9180802930315],[-83.6142516649243,34.9025305276817],[-83.6332092758958,34.8812423941198],[-83.6417274805088,34.7939329383138],[-83.6861168876539,34.7835096726416],[-83.6781250401017,34.7771905908269],[-83.6431837331277,34.7689847889287],[-83.6402273640529,34.7494389053761],[-83.6591674291303,34.7402895977754],[-83.6829368165138,34.7320584999665],[-83.7190492661069,34.7082905916585],[-83.7318572774429,34.6951373427688],[-83.7759484160658,34.6738262649689],[-83.8218554855608,34.6672570837098],[-83.8388304859542,34.6590493852551],[-83.865893988298,34.6496699668579],[-83.8887334792253,34.6262014376375]],[[-83.7090704224014,34.8034202605733],[-83.7151586141023,34.8129082920364],[-83.7391209982364,34.8066256769054],[-83.7090704224014,34.8034202605733]]]}},{"id":"8","type":"Feature","properties":{"category":1,"label":"0.10 to 0.25 inches"},"geometry":{"type":"Polygon","coordinates":[[[-83.7090704224014,34.8034202605733],[-83.7391209982364,34.8066256769054],[-83.7151586141023,34.8129082920364],[-83.7090704224014,34.8034202605733]]]}},{"id":"9","type":"Feature","properties":{"category":0,"label":"0.01 to 0.10 inches"},"geometry":{"type":"Polygon","coordinates":[[[-83.8797503263841,34.6335931346816],[-83.9282233840809,34.6388116804539],[-83.933100954901,34.688735758561],[-83.9108580019162,34.6818972388195],[-83.8786537502218,34.6671217989084],[-83.8576258036932,34.6784326783315],[-83.8666308880037,34.6981810764538],[-83.8845752622167,34.7108921448418],[-83.8928916962338,34.7262077397882],[-83.9029319487721,34.7333165571063],[-83.8928916962338,34.7404247629874],[-83.8821277034105,34.8271013836487],[-83.8437870106029,34.8636234361654],[-83.7702111287727,34.9125610574631],[-83.7073553768273,34.976100612634],[-83.6582857820863,34.9793298477114],[-83.5977503857062,34.9680620138562],[-83.5945089057333,34.9349791842129],[-83.6060975241397,34.9179454191069],[-83.6144139581568,34.9026654269322],[-83.6330469826633,34.8811074596885],[-83.6419029322636,34.7941688737942],[-83.6862791808864,34.7831962515928],[-83.6779627468693,34.7773256956423],[-83.6426179004999,34.7685848367245],[-83.6407010852281,34.7489649761884],[-83.6593297223628,34.7404247629874],[-83.6814981088907,34.7322946123533],[-83.7711322531802,34.6745837979132],[-83.8306763451696,34.6671217989084],[-83.8389927791867,34.659184683237],[-83.8616655904079,34.6508607192126],[-83.8797503263841,34.6335931346816]]]}},{"id":"10","type":"Feature","properties":{"category":0,"label":"0.01 to 0.10 inches"},"geometry":{"type":"Polygon","coordinates":[[[-83.8797503263841,34.6335931346816],[-83.9243765941167,34.6383966632288],[-83.946790613281,34.6714417955367],[-83.9382592501457,34.7048938461221],[-83.9294910264227,34.688735758561],[-83.9108580019162,34.6818972388195],[-83.8786537502218,34.6671217989084],[-83.8576258036932,34.6784326783315],[-83.8666308880037,34.6981810764538],[-83.8845752622167,34.7108921448418],[-83.8928916962338,34.7262077397882],[-83.9122747789683,34.7333165571063],[-83.8928916962338,34.7404247629874],[-83.8821277034105,34.8271013836487],[-83.8381374500855,34.8690038086748],[-83.7813655033675,34.9050306310855],[-83.7677942752812,34.9179454191069],[-83.7581444036159,34.9247643841354],[-83.7073553768273,34.976100612634],[-83.6582857820863,34.9793298477114],[-83.5977503857062,34.9680620138562],[-83.5936974395708,34.9267063910489],[-83.6060975241397,34.9179454191069],[-83.6144139581568,34.9026654269322],[-83.6330469826633,34.8811074596885],[-83.6419029322636,34.7941688737942],[-83.6862791808864,34.7831962515928],[-83.6779627468693,34.7773256956423],[-83.6426179004999,34.7685848367245],[-83.6407010852281,34.7489649761884],[-83.6593297223628,34.7404247629874],[-83.6876126176362,34.730052416665],[-83.7187202931683,34.7080237611403],[-83.7343267668202,34.69313036372],[-83.7761107092983,34.6739615388214],[-83.8216931923284,34.6671217989084],[-83.8389927791867,34.659184683237],[-83.8616655904079,34.6508607192126],[-83.8797503263841,34.6335931346816]],[[-83.7090704224014,34.8034202605733],[-83.713952379695,34.8127858492746],[-83.7297299195264,34.8064095858881],[-83.7090704224014,34.8034202605733]]]}},{"id":"11","type":"Feature","properties":{"category":1,"label":"0.10 to 0.25 inches"},"geometry":{"type":"Polygon","coordinates":[[[-83.7090704224014,34.8034202605733],[-83.7200230264001,34.8059449869545],[-83.7121452226683,34.8124131188935],[-83.7090704224014,34.8034202605733]]]}},{"id":"12","type":"Feature","properties":{"category":0,"label":"0.01 to 0.10 inches"},"geometry":{"type":"Polygon","coordinates":[[[-83.8887334792253,34.6262014376375],[-83.9124897071882,34.6296032161156],[-83.9466283200485,34.6680453411233],[-83.9383382039743,34.7055447190926],[-83.9296533196552,34.6886005088427],[-83.9106957086837,34.6820324994889],[-83.8801319352084,34.6672570837098],[-83.8577880969256,34.6774840016116],[-83.8666133430079,34.6988265937938],[-83.8847375554492,34.7107569313334],[-83.8967209412022,34.7230586841075],[-83.9125028666088,34.7334427226955],[-83.8927294030014,34.7402895977754],[-83.8840839960457,34.820990893729],[-83.8667712497668,34.8443879766852],[-83.8567967916366,34.8509430801411],[-83.8400016294716,34.868150890609],[-83.7803478801355,34.9053903517128],[-83.7679565685137,34.9180802930315],[-83.7579821103834,34.9246295211954],[-83.7080615721165,34.9757663610746],[-83.6647862861296,34.980176220238],[-83.5983337642281,34.9683944999357],[-83.592105210764,34.9273734959242],[-83.6062598173722,34.9180802930315],[-83.6142516649243,34.9025305276817],[-83.6332092758958,34.8812423941198],[-83.6417274805088,34.7939329383138],[-83.6861168876539,34.7835096726416],[-83.6781250401017,34.7771905908269],[-83.6431837331277,34.7689847889287],[-83.6402273640529,34.7494389053761],[-83.6591674291303,34.7402895977754],[-83.6829368165138,34.7320584999665],[-83.7190492661069,34.7082905916585],[-83.7318572774429,34.6951373427688],[-83.7759484160658,34.6738262649689],[-83.8218554855608,34.6672570837098],[-83.8388304859542,34.6590493852551],[-83.865893988298,34.6496699668579],[-83.8887334792253,34.6262014376375]],[[-83.7090704224014,34.8034202605733],[-83.7151586141023,34.8129082920364],[-83.7391209982364,34.8066256769054],[-83.7090704224014,34.8034202605733]]]}},{"id":"13","type":"Feature","properties":{"category":1,"label":"0.10 to 0.25 inches"},"geometry":{"type":"Polygon","coordinates":[[[-83.7090704224014,34.8034202605733],[-83.7391209982364,34.8066256769054],[-83.7151586141023,34.8129082920364],[-83.7090704224014,34.8034202605733]]]}},{"id":"14","type":"Feature","properties":{"category":1,"label":"0.10 to 0.25 inches"},"geometry":{"type":"Polygon","coordinates":[[[-83.7090704224014,34.8034202605733],[-83.7297299195264,34.8064095858881],[-83.713952379695,34.8127858492746],[-83.7090704224014,34.8034202605733]]]}},{"id":"15","type":"Feature","properties":{"category":0,"label":"0.01 to 0.10 inches"},"geometry":{"type":"Polygon","coordinates":[[[-83.8797503263841,34.6335931346816],[-83.9243765941167,34.6383966632288],[-83.946790613281,34.6714417955367],[-83.9382592501457,34.7048938461221],[-83.9294910264227,34.688735758561],[-83.9108580019162,34.6818972388195],[-83.8786537502218,34.6671217989084],[-83.8576258036932,34.6784326783315],[-83.8666308880037,34.6981810764538],[-83.8845752622167,34.7108921448418],[-83.8928916962338,34.7262077397882],[-83.9122747789683,34.7333165571063],[-83.8928916962338,34.7404247629874],[-83.8821277034105,34.8271013836487],[-83.8437870106029,34.8636234361654],[-83.7809663495474,34.905408337666],[-83.7677942752812,34.9179454191069],[-83.7581444036159,34.9247643841354],[-83.7073553768273,34.976100612634],[-83.6582857820863,34.9793298477114],[-83.5977503857062,34.9680620138562],[-83.5936974395708,34.9267063910489],[-83.6060975241397,34.9179454191069],[-83.6144139581568,34.9026654269322],[-83.6330469826633,34.8811074596885],[-83.6419029322636,34.7941688737942],[-83.6862791808864,34.7831962515928],[-83.6779627468693,34.7773256956423],[-83.6426179004999,34.7685848367245],[-83.6407010852281,34.7489649761884],[-83.6593297223628,34.7404247629874],[-83.6876126176362,34.730052416665],[-83.7187202931683,34.7080237611403],[-83.7343267668202,34.69313036372],[-83.7761107092983,34.6739615388214],[-83.8216931923284,34.6671217989084],[-83.8389927791867,34.659184683237],[-83.8616655904079,34.6508607192126],[-83.8797503263841,34.6335931346816]],[[-83.7090704224014,34.8034202605733],[-83.7121452226683,34.8124131188935],[-83.7200230264001,34.8059449869545],[-83.7090704224014,34.8034202605733]]]}},{"id":"16","type":"Feature","properties":{"category":0,"label":"0.01 to 0.10 inches"},"geometry":{"type":"Polygon","coordinates":[[[-83.8887334792253,34.6262014376375],[-83.9135731248282,34.6300164730284],[-83.9468695671097,34.6692340260203],[-83.9382417051498,34.7046197924245],[-83.9294120725941,34.6888024818217],[-83.9109369557449,34.6818305099935],[-83.877877374051,34.6670550581773],[-83.8582179542638,34.6908690739799],[-83.8802547510774,34.7070591976162],[-83.8972122073732,34.7226567071833],[-83.9118186027889,34.7333832444135],[-83.8929706500625,34.7404914445581],[-83.8828338986997,34.8292059229962],[-83.8665300027057,34.8441863840581],[-83.8570380386977,34.8511446562168],[-83.8369092842089,34.8696317959018],[-83.7820190627709,34.9047500472981],[-83.7677153214526,34.9178788810751],[-83.7582233574445,34.9248309165847],[-83.7094169403357,34.9761221773227],[-83.6546714662361,34.9787961429281],[-83.5974872071757,34.967894871477],[-83.5944650427946,34.926341369563],[-83.606018570311,34.9178788810751],[-83.6144929119854,34.9027319772949],[-83.6329680288346,34.8810408918066],[-83.641990658141,34.7942877420153],[-83.686358134715,34.7830359383006],[-83.6778837930406,34.7773923474172],[-83.6423678804917,34.7683830585994],[-83.6409423313909,34.7487379207996],[-83.6594086761914,34.7404914445581],[-83.6897487484998,34.729048456047],[-83.7185579999359,34.7078885429431],[-83.7356909079865,34.6921259548351],[-83.7761896631269,34.6740282739883],[-83.8216142384997,34.6670550581773],[-83.8390717330153,34.6592514303078],[-83.8624112621623,34.6504403492146],[-83.8887334792253,34.6262014376375]],[[-83.7090704224014,34.8034202605733],[-83.7151586141023,34.8129082920364],[-83.7391209982364,34.8066256769054],[-83.7090704224014,34.8034202605733]]]}},{"id":"17","type":"Feature","properties":{"category":1,"label":"0.10 to 0.25 inches"},"geometry":{"type":"Polygon","coordinates":[[[-83.7090704224014,34.8034202605733],[-83.7391209982364,34.8066256769054],[-83.7151586141023,34.8129082920364],[-83.7090704224014,34.8034202605733]]]}},{"id":"18","type":"Feature","properties":{"category":0,"label":"0.01 to 0.10 inches"},"geometry":{"type":"Polygon","coordinates":[[[-83.8797503263841,34.6335931346816],[-83.9282233840809,34.6388116804539],[-83.933100954901,34.688735758561],[-83.9108580019162,34.6818972388195],[-83.8786537502218,34.6671217989084],[-83.8576258036932,34.6784326783315],[-83.8659422377102,34.7040554558015],[-83.8916459853614,34.7134846029955],[-83.8936680724047,34.7341600576585],[-83.8821277034105,34.8271013836487],[-83.8437870106029,34.8636234361654],[-83.7702111287727,34.9125610574631],[-83.7073553768273,34.976100612634],[-83.6582857820863,34.9793298477114],[-83.5977503857062,34.9680620138562],[-83.5945089057333,34.9349791842129],[-83.6060975241397,34.9179454191069],[-83.6144139581568,34.9026654269322],[-83.6330469826633,34.8811074596885],[-83.6419029322636,34.7941688737942],[-83.6862791808864,34.7831962515928],[-83.6779627468693,34.7773256956423],[-83.6426179004999,34.7685848367245],[-83.6407010852281,34.7489649761884],[-83.6593297223628,34.7404247629874],[-83.6814981088907,34.7322946123533],[-83.7711322531802,34.6745837979132],[-83.8306763451696,34.6671217989084],[-83.8389927791867,34.659184683237],[-83.8616655904079,34.6508607192126],[-83.8797503263841,34.6335931346816]]]}}],"meta":{"source":"NWS NDFD precipitation forecast","issued":"2026-10-05T11:19:46.741669+00:00","window_end":"2026-10-08T11:19:46.741669+00:00","window_hours":72,"generated_at":"2026-10-05T11:19:46.936541+00:00","n_polygons":19}}