{"type":"FeatureCollection","features":[{"id":"0","type":"Feature","properties":{"category":0,"label":"cat 0"},"geometry":{"type":"Polygon","coordinates":[[[-81.04000009887126,35.01000004829952],[-81.04000009887126,35.00000004858531],[-81.03000009915702,35.00000004858531],[-81.03000009915702,35.01000004829952],[-81.04000009887126,35.01000004829952]]]}}],"meta":{"source":"NOAA MRMS RadarOnly (24H)","observed_at":"2026-10-07T10:00:00+00:00","window_hours":24,"max_inches":0.011811021715402603,"minutes_ago":57.72796003333334,"generated_at":"2026-10-07T10:57:44.546700+00:00","n_polygons":1}}