{"type":"FeatureCollection","features":[{"id":"0","type":"Feature","properties":{"category":0,"label":"cat 0"},"geometry":{"type":"Polygon","coordinates":[[[-81.04000009887126,35.01000004829952],[-81.04000009887126,35.00000004858531],[-81.03000009915702,35.00000004858531],[-81.03000009915702,35.01000004829952],[-81.04000009887126,35.01000004829952]]]}}],"meta":{"source":"NOAA MRMS RadarOnly (72H)","observed_at":"2026-10-09T11:00:00+00:00","window_hours":72,"max_inches":0.011811021715402603,"minutes_ago":14.025465816666667,"generated_at":"2026-10-09T11:14:02.925893+00:00","n_polygons":1}}